{"type": "FeatureCollection", "features": [ {"type": "Feature", "properties": {"norad_id": 37216, "name": "COSMO-SKYMED 4", "group": "resource", "lat": -67.63390983840102, "lon": -37.77768628585036, "alt_km": 630.7241626102086, "timestamp": "2025-12-06T11:28:10.686009+00:00", "meta": {"OBJECT_NAME": "COSMO-SKYMED 4", "OBJECT_ID": "2010-060A", "EPOCH": "2025-12-05T23:00:28.903968", "MEAN_MOTION": 14.82155476, "ECCENTRICITY": 0.00013716, "INCLINATION": 97.8815, "RA_OF_ASC_NODE": 161.3842, "ARG_OF_PERICENTER": 82.8726, "MEAN_ANOMALY": 277.2643, "EPHEMERIS_TYPE": 0, "CLASSIFICATION_TYPE": "U", "NORAD_CAT_ID": 37216, "ELEMENT_SET_NO": 999, "REV_AT_EPOCH": 81594, "BSTAR": 0.00014049378, "MEAN_MOTION_DOT": 1.066e-05, "MEAN_MOTION_DDOT": 0}, "tle": {"line1": "1 37216U 10060A   25339.95866787  .00001066  00000+0  14049-3 0  9997", "line2": "2 37216  97.8815 161.3842 0001371  82.8726 277.2643 14.82155476815940"}}, "geometry": {"type": "Point", "coordinates": [-37.77768628585036, -67.63390983840102]}}, {"type": "Feature", "properties": {"norad_id": 37387, "name": "RESOURCESAT-2", "group": "resource", "lat": 42.33235568664428, "lon": -127.84074646562861, "alt_km": 815.485565636216, "timestamp": "2025-12-06T11:28:10.686019+00:00", "meta": {"OBJECT_NAME": "RESOURCESAT-2", "OBJECT_ID": "2011-015A", "EPOCH": "2025-12-05T23:00:13.703616", "MEAN_MOTION": 14.21593067, "ECCENTRICITY": 0.00066986, "INCLINATION": 98.7886, "RA_OF_ASC_NODE": 43.5406, "ARG_OF_PERICENTER": 60.0807, "MEAN_ANOMALY": 300.1035, "EPHEMERIS_TYPE": 0, "CLASSIFICATION_TYPE": "U", "NORAD_CAT_ID": 37387, "ELEMENT_SET_NO": 999, "REV_AT_EPOCH": 75872, "BSTAR": 0.00016819785, "MEAN_MOTION_DOT": 3.24e-06, "MEAN_MOTION_DDOT": 0}, "tle": {"line1": "1 37387U 11015A   25339.95849194  .00000324  00000+0  16820-3 0  9995", "line2": "2 37387  98.7886  43.5406 0006698  60.0807 300.1035 14.21593067758727"}}, "geometry": {"type": "Point", "coordinates": [-127.84074646562861, 42.33235568664428]}}, {"type": "Feature", "properties": {"norad_id": 37781, "name": "HAIYANG-2A", "group": "resource", "lat": 65.37566937287808, "lon": -39.52794209800764, "alt_km": 960.4945301464195, "timestamp": "2025-12-06T11:28:10.686029+00:00", "meta": {"OBJECT_NAME": "HAIYANG-2A", "OBJECT_ID": "2011-043A", "EPOCH": "2025-12-05T22:57:16.907616", "MEAN_MOTION": 13.78834591, "ECCENTRICITY": 0.00016477, "INCLINATION": 99.3377, "RA_OF_ASC_NODE": 340.9955, "ARG_OF_PERICENTER": 94.0747, "MEAN_ANOMALY": 266.0593, "EPHEMERIS_TYPE": 0, "CLASSIFICATION_TYPE": "U", "NORAD_CAT_ID": 37781, "ELEMENT_SET_NO": 999, "REV_AT_EPOCH": 72005, "BSTAR": 6.7965945e-05, "MEAN_MOTION_DOT": 2.5e-07, "MEAN_MOTION_DDOT": 0}, "tle": {"line1": "1 37781U 11043A   25339.95644569  .00000025  00000+0  67966-4 0  9999", "line2": "2 37781  99.3377 340.9955 0001647  94.0747 266.0593 13.78834591720054"}}, "geometry": {"type": "Point", "coordinates": [-39.52794209800764, 65.37566937287808]}}, {"type": "Feature", "properties": {"norad_id": 37791, "name": "RASAT", "group": "resource", "lat": -20.813996866813632, "lon": 72.91869565362367, "alt_km": 676.9573146977909, "timestamp": "2025-12-06T11:28:10.686040+00:00", "meta": {"OBJECT_NAME": "RASAT", "OBJECT_ID": "2011-044D", "EPOCH": "2025-12-05T22:52:33.896640", "MEAN_MOTION": 14.67894622, "ECCENTRICITY": 0.00219435, "INCLINATION": 98.0657, "RA_OF_ASC_NODE": 69.3117, "ARG_OF_PERICENTER": 85.4734, "MEAN_ANOMALY": 2.6149, "EPHEMERIS_TYPE": 0, "CLASSIFICATION_TYPE": "U", "NORAD_CAT_ID": 37791, "ELEMENT_SET_NO": 999, "REV_AT_EPOCH": 76483, "BSTAR": 0.00022263282, "MEAN_MOTION_DOT": 1.228e-05, "MEAN_MOTION_DDOT": 0}, "tle": {"line1": "1 37791U 11044D   25339.95317010  .00001228  00000+0  22263-3 0  9995", "line2": "2 37791  98.0657  69.3117 0021943  85.4734   2.6149 14.67894622764830"}}, "geometry": {"type": "Point", "coordinates": [72.91869565362367, -20.813996866813632]}}, {"type": "Feature", "properties": {"norad_id": 37841, "name": "SRMSAT", "group": "resource", "lat": -14.321395625497082, "lon": 10.522905156719407, "alt_km": 845.4681669357242, "timestamp": "2025-12-06T11:28:10.686051+00:00", "meta": {"OBJECT_NAME": "SRMSAT", "OBJECT_ID": "2011-058D", "EPOCH": "2025-12-05T19:15:39.477600", "MEAN_MOTION": 14.11507797, "ECCENTRICITY": 0.00117219, "INCLINATION": 19.9698, "RA_OF_ASC_NODE": 149.9381, "ARG_OF_PERICENTER": 236.4412, "MEAN_ANOMALY": 150.7889, "EPHEMERIS_TYPE": 0, "CLASSIFICATION_TYPE": "U", "NORAD_CAT_ID": 37841, "ELEMENT_SET_NO": 999, "REV_AT_EPOCH": 73046, "BSTAR": 0.00015124686, "MEAN_MOTION_DOT": 5.44e-06, "MEAN_MOTION_DDOT": 0}, "tle": {"line1": "1 37841U 11058D   25339.80254025  .00000544  00000+0  15125-3 0  9995", "line2": "2 37841  19.9698 149.9381 0011721 236.4412 150.7889 14.11507797730466"}}, "geometry": {"type": "Point", "coordinates": [10.522905156719407, -14.321395625497082]}}, {"type": "Feature", "properties": {"norad_id": 38012, "name": "PLEIADES 1A", "group": "resource", "lat": -15.181716492079248, "lon": 55.58076277577737, "alt_km": 702.641732614009, "timestamp": "2025-12-06T11:28:10.686062+00:00", "meta": {"OBJECT_NAME": "PLEIADES 1A", "OBJECT_ID": "2011-076F", "EPOCH": "2025-12-05T22:52:24.157632", "MEAN_MOTION": 14.58551273, "ECCENTRICITY": 0.00013721, "INCLINATION": 98.1833, "RA_OF_ASC_NODE": 52.8262, "ARG_OF_PERICENTER": 79.9, "MEAN_ANOMALY": 30.682, "EPHEMERIS_TYPE": 0, "CLASSIFICATION_TYPE": "U", "NORAD_CAT_ID": 38012, "ELEMENT_SET_NO": 999, "REV_AT_EPOCH": 74382, "BSTAR": 0.0001888797, "MEAN_MOTION_DOT": 8.32e-06, "MEAN_MOTION_DDOT": 0}, "tle": {"line1": "1 38012U 11076F   25339.95305738  .00000832  00000+0  18888-3 0  9999", "line2": "2 38012  98.1833  52.8262 0001372  79.9000  30.6820 14.58551273743825"}}, "geometry": {"type": "Point", "coordinates": [55.58076277577737, -15.181716492079248]}}, {"type": "Feature", "properties": {"norad_id": 38038, "name": "ZIYUAN 1-02C (ZY 1-02C)", "group": "resource", "lat": -5.018801593374039, "lon": 47.35347000429585, "alt_km": 773.3436211439084, "timestamp": "2025-12-06T11:28:10.686072+00:00", "meta": {"OBJECT_NAME": "ZIYUAN 1-02C (ZY 1-02C)", "OBJECT_ID": "2011-079A", "EPOCH": "2025-12-05T22:56:21.830208", "MEAN_MOTION": 14.3800031, "ECCENTRICITY": 0.00069077, "INCLINATION": 98.4344, "RA_OF_ASC_NODE": 46.0944, "ARG_OF_PERICENTER": 157.2338, "MEAN_ANOMALY": 16.6251, "EPHEMERIS_TYPE": 0, "CLASSIFICATION_TYPE": "U", "NORAD_CAT_ID": 38038, "ELEMENT_SET_NO": 999, "REV_AT_EPOCH": 73143, "BSTAR": 0.00032482739, "MEAN_MOTION_DOT": 9.39e-06, "MEAN_MOTION_DDOT": 0}, "tle": {"line1": "1 38038U 11079A   25339.95580822  .00000939  00000+0  32483-3 0  9994", "line2": "2 38038  98.4344  46.0944 0006907 157.2338  16.6251 14.38000310731433"}}, "geometry": {"type": "Point", "coordinates": [47.35347000429585, -5.018801593374039]}}, {"type": "Feature", "properties": {"norad_id": 38046, "name": "ZIYUAN 3-1 (ZY 3-1)", "group": "resource", "lat": 72.64524438768989, "lon": -109.46671386659696, "alt_km": 359.40039560167406, "timestamp": "2025-12-06T11:28:10.686083+00:00", "meta": {"OBJECT_NAME": "ZIYUAN 3-1 (ZY 3-1)", "OBJECT_ID": "2012-001A", "EPOCH": "2025-12-05T22:45:42.045120", "MEAN_MOTION": 15.67293771, "ECCENTRICITY": 0.00020489, "INCLINATION": 97.1767, "RA_OF_ASC_NODE": 46.2134, "ARG_OF_PERICENTER": 20.1389, "MEAN_ANOMALY": 339.9953, "EPHEMERIS_TYPE": 0, "CLASSIFICATION_TYPE": "U", "NORAD_CAT_ID": 38046, "ELEMENT_SET_NO": 999, "REV_AT_EPOCH": 77390, "BSTAR": 0.00079748444, "MEAN_MOTION_DOT": 0.00086313, "MEAN_MOTION_DDOT": 0}, "tle": {"line1": "1 38046U 12001A   25339.94840330  .00086313  00000+0  79748-3 0  9996", "line2": "2 38046  97.1767  46.2134 0002048  20.1389 339.9953 15.67293771773902"}}, "geometry": {"type": "Point", "coordinates": [-109.46671386659696, 72.64524438768989]}}, {"type": "Feature", "properties": {"norad_id": 38338, "name": "ARIRANG-3 (KOMPSAT-3)", "group": "resource", "lat": 8.554282749373261, "lon": 116.2834895516483, "alt_km": 693.5842972404271, "timestamp": "2025-12-06T11:28:10.686094+00:00", "meta": {"OBJECT_NAME": "ARIRANG-3 (KOMPSAT-3)", "OBJECT_ID": "2012-025B", "EPOCH": "2025-12-05T23:11:18.549024", "MEAN_MOTION": 14.61698412, "ECCENTRICITY": 0.0005841, "INCLINATION": 98.3313, "RA_OF_ASC_NODE": 294.505, "ARG_OF_PERICENTER": 0.4885, "MEAN_ANOMALY": 359.632, "EPHEMERIS_TYPE": 0, "CLASSIFICATION_TYPE": "U", "NORAD_CAT_ID": 38338, "ELEMENT_SET_NO": 999, "REV_AT_EPOCH": 72311, "BSTAR": 0.00023846306, "MEAN_MOTION_DOT": 1.139e-05, "MEAN_MOTION_DDOT": 0}, "tle": {"line1": "1 38338U 12025B   25339.96618691  .00001139  00000+0  23846-3 0  9992", "line2": "2 38338  98.3313 294.5050 0005841   0.4885 359.6320 14.61698412723116"}}, "geometry": {"type": "Point", "coordinates": [116.2834895516483, 8.554282749373261]}}, {"type": "Feature", "properties": {"norad_id": 38709, "name": "EXACTVIEW-1 (ADS-1B)", "group": "resource", "lat": -78.64171216839704, "lon": 140.5240723748463, "alt_km": 816.8165073118425, "timestamp": "2025-12-06T11:28:10.686104+00:00", "meta": {"OBJECT_NAME": "EXACTVIEW-1 (ADS-1B)", "OBJECT_ID": "2012-039C", "EPOCH": "2025-12-05T22:22:33.790656", "MEAN_MOTION": 14.24903465, "ECCENTRICITY": 0.00110299, "INCLINATION": 98.9636, "RA_OF_ASC_NODE": 88.1797, "ARG_OF_PERICENTER": 13.6407, "MEAN_ANOMALY": 346.5067, "EPHEMERIS_TYPE": 0, "CLASSIFICATION_TYPE": "U", "NORAD_CAT_ID": 38709, "ELEMENT_SET_NO": 999, "REV_AT_EPOCH": 69518, "BSTAR": 0.00015078973, "MEAN_MOTION_DOT": 3.06e-06, "MEAN_MOTION_DDOT": 0}, "tle": {"line1": "1 38709U 12039C   25339.93233554  .00000306  00000+0  15079-3 0  9991", "line2": "2 38709  98.9636  88.1797 0011029  13.6407 346.5067 14.24903465695182"}}, "geometry": {"type": "Point", "coordinates": [140.5240723748463, -78.64171216839704]}}]}